OBJECT B                
1 51825U 22019B   25339.32760440  .00058810  00000+0  98428-3 0  9998
2 51825  97.3697  58.7578 0009146 117.2119 243.0067 15.51644292209491
